NORAD_CAT_ID,OBJECT_NAME,OBJECT_TYPE,EPOCH,MEAN_MOTION,ECCENTRICITY,INCLINATION,RA_OF_ASC_NODE,ARG_OF_PERICENTER,MEAN_ANOMALY,BSTAR,MEAN_MOTION_DOT,MEAN_MOTION_DDOT,TLE_LINE0,TLE_LINE1,TLE_LINE2,SEMIMAJOR_AXIS,PERIOD,APOGEE,PERIGEE,DECAYED
55936.0,STARLINK-5882,PAYLOAD,2024-05-24 22:50:51,14.98325646,0.0002582,70.001,112.6009,257.0092,103.0779,1.0969e-05,3.8e-07,0.0,0 STARLINK-5882,1 55936U 23037Y   24145.95198978  .00000038  00000-0  10969-4 0  9995,2 55936  70.0010 112.6009 0002582 257.0092 103.0779 14.98325646 66556,6950.206,96.107,573.866,570.277,0.0
55936.0,STARLINK-5882,PAYLOAD,2024-05-25 05:15:24,14.98327183,0.0002853,69.9995,111.9279,260.1423,99.9414,-3.2781e-05,-4.84e-06,0.0,0 STARLINK-5882,1 55936U 23037Y   24146.21903011 -.00000484  00000-0 -32781-4 0  9990,2 55936  69.9995 111.9279 0002853 260.1423  99.9414 14.98327183 66939,6950.202,96.107,574.049,570.084,0.0
55936.0,STARLINK-5882,PAYLOAD,2024-05-25 08:27:40,14.98328286,0.0002926,69.9993,111.5909,266.2062,93.8762,-2.1603e-05,-3.51e-06,0.0,0 STARLINK-5882,1 55936U 23037Y   24146.35254963 -.00000351  00000-0 -21603-4 0  9994,2 55936  69.9993 111.5909 0002926 266.2062  93.8762 14.98328286 66619,6950.198,96.107,574.097,570.03,0.0
55936.0,STARLINK-5882,PAYLOAD,2024-05-25 14:52:11,14.98337978,0.0002676,69.9997,110.917,269.897,90.1882,6.6667e-05,7.03e-06,0.0,0 STARLINK-5882,1 55936U 23037Y   24146.61958322  .00000703  00000-0  66667-4 0  9991,2 55936  69.9997 110.9170 0002676 269.8970  90.1882 14.98337978 66997,6950.168,96.106,573.893,570.173,0.0
55936.0,STARLINK-5882,PAYLOAD,2024-05-26 03:41:16,14.98332746,0.0003094,69.9991,109.5706,264.3707,95.71,-1.5541e-05,-2.78e-06,0.0,0 STARLINK-5882,1 55936U 23037Y   24147.15366670 -.00000278  00000-0 -15541-4 0  9994,2 55936  69.9991 109.5706 0003094 264.3707  95.7100 14.98332746 67075,6950.184,96.107,574.2,569.899,0.0
55936.0,STARLINK-5882,PAYLOAD,2024-05-26 06:53:32,14.98332056,0.000296,69.9991,109.2331,261.5265,98.5558,-3.5683e-06,-1.36e-06,0.0,0 STARLINK-5882,1 55936U 23037Y   24147.28718627 -.00000136  00000-0 -35683-5 0  9994,2 55936  69.9991 109.2331 0002960 261.5265  98.5558 14.98332056 66751,6950.187,96.107,574.109,569.994,0.0
55936.0,STARLINK-5882,PAYLOAD,2024-05-26 22:54:53,14.98324733,0.0002758,70.0,107.5521,257.7126,102.3725,2.1445e-05,1.63e-06,0.0,0 STARLINK-5882,1 55936U 23037Y   24147.95479108  .00000163  00000-0  21445-4 0  9994,2 55936  70.0000 107.5521 0002758 257.7126 102.3725 14.98324733 66859,6950.209,96.107,573.991,570.157,0.0
55936.0,STARLINK-5882,PAYLOAD,2024-05-27 05:19:26,14.98318305,0.0002978,69.9996,106.8763,269.4337,90.6481,0.00012843,1.439e-05,0.0,0 STARLINK-5882,1 55936U 23037Y   24148.22183340  .00001439  00000-0  12843-3 0  9993,2 55936  69.9996 106.8763 0002978 269.4337  90.6481 14.98318305 67237,6950.229,96.108,574.164,570.024,0.0
55936.0,STARLINK-5882,PAYLOAD,2024-05-27 06:55:34,14.98324952,0.0002678,69.9997,106.7082,262.1797,97.9058,3.3259e-05,3.04e-06,0.0,0 STARLINK-5882,1 55936U 23037Y   24148.28859191  .00000304  00000-0  33259-4 0  9998,2 55936  69.9997 106.7082 0002678 262.1797  97.9058 14.98324952 66906,6950.209,96.107,573.935,570.212,0.0
55936.0,STARLINK-5882,PAYLOAD,2024-05-27 21:20:46,14.98330956,0.000294,69.9993,105.1934,265.2248,94.8575,5.0207e-06,-3.3e-07,0.0,0 STARLINK-5882,1 55936U 23037Y   24148.88942888 -.00000033  00000-0  50207-5 0  9993,2 55936  69.9993 105.1934 0002940 265.2248  94.8575 14.98330956 67337,6950.19,96.107,574.098,570.012,0.0
55936.0,STARLINK-5882,PAYLOAD,2024-05-27 22:56:54,14.98331402,0.0002951,69.9993,105.0249,265.3759,94.7063,9.2776e-06,1.8e-07,0.0,0 STARLINK-5882,1 55936U 23037Y   24148.95618840  .00000018  00000-0  92776-5 0  9998,2 55936  69.9993 105.0249 0002951 265.3759  94.7063 14.98331402 67007,6950.189,96.107,574.105,570.003,0.0
55936.0,STARLINK-5882,PAYLOAD,2024-05-28 06:57:34,14.98333742,0.0002925,69.9994,104.1834,264.4472,95.6354,3.6399e-05,3.41e-06,0.0,0 STARLINK-5882,1 55936U 23037Y   24149.28998567  .00000341  00000-0  36399-4 0  9999,2 55936  69.9994 104.1834 0002925 264.4472  95.6354 14.98333742 67058,6950.181,96.107,574.079,570.013,0.0
55936.0,STARLINK-5882,PAYLOAD,2024-05-28 21:22:47,14.98330292,0.0002963,69.9993,102.6689,263.8253,96.2568,2.0726e-05,1.54e-06,0.0,0 STARLINK-5882,1 55936U 23037Y   24149.89082764  .00000154  00000-0  20726-4 0  9998,2 55936  69.9993 102.6689 0002963 263.8253  96.2568 14.98330292 67141,6950.192,96.107,574.116,569.998,0.0
55936.0,STARLINK-5882,PAYLOAD,2024-05-29 05:23:27,14.98331416,0.0002956,69.9995,101.8279,263.4309,96.6514,2.9939e-05,2.64e-06,0.0,0 STARLINK-5882,1 55936U 23037Y   24150.22462642  .00000264  00000-0  29939-4 0  9991,2 55936  69.9995 101.8279 0002956 263.4309  96.6514 14.98331416 67536,6950.189,96.107,574.108,569.999,0.0
55936.0,STARLINK-5882,PAYLOAD,2024-05-29 06:59:35,14.98331726,0.0002958,69.9995,101.6596,263.5551,96.5271,3.2187e-05,2.91e-06,0.0,0 STARLINK-5882,1 55936U 23037Y   24150.29138607  .00000291  00000-0  32187-4 0  9998,2 55936  69.9995 101.6596 0002958 263.5551  96.5271 14.98331726 67205,6950.188,96.107,574.108,569.997,0.0
55936.0,STARLINK-5882,PAYLOAD,2024-05-29 23:00:56,14.98331108,0.0002918,69.9997,99.9769,259.0587,101.0244,-3.8101e-05,-5.48e-06,0.0,0 STARLINK-5882,1 55936U 23037Y   24150.95898777 -.00000548  00000-0 -38101-4 0  9991,2 55936  69.9997  99.9769 0002918 259.0587 101.0244 14.98331108 67300,6950.189,96.107,574.083,570.026,0.0
55936.0,STARLINK-5882,PAYLOAD,2024-05-30 05:25:28,14.98333609,0.0002873,69.9997,99.3035,258.0653,102.0184,-4.6161e-06,-1.48e-06,0.0,0 STARLINK-5882,1 55936U 23037Y   24151.22602474 -.00000148  00000-0 -46161-5 0  9991,2 55936  69.9997  99.3035 0002873 258.0653 102.0184 14.98333609 67686,6950.182,96.107,574.044,570.05,0.0
55936.0,STARLINK-5882,PAYLOAD,2024-05-30 07:01:36,14.98333135,0.0002746,70.0001,99.1346,264.9174,95.1672,-6.3457e-06,-1.69e-06,0.0,0 STARLINK-5882,1 55936U 23037Y   24151.29278572 -.00000169  00000-0 -63457-5 0  9996,2 55936  70.0001  99.1346 0002746 264.9174  95.1672 14.98333135 67353,6950.183,96.107,573.957,570.14,0.0
55936.0,STARLINK-5882,PAYLOAD,2024-05-30 21:26:49,14.98331969,0.0002709,70.0002,97.6198,264.7597,95.3253,2.2557e-05,1.76e-06,0.0,0 STARLINK-5882,1 55936U 23037Y   24151.89362426  .00000176  00000-0  22557-4 0  9995,2 55936  70.0002  97.6198 0002709 264.7597  95.3253 14.98331969 67448,6950.187,96.107,573.935,570.169,0.0
55936.0,STARLINK-5882,PAYLOAD,2024-05-31 05:27:29,14.9833216,0.0002727,70.0002,96.7783,262.5198,97.5651,2.1049e-05,1.58e-06,0.0,0 STARLINK-5882,1 55936U 23037Y   24152.22742353  .00000158  00000-0  21049-4 0  9999,2 55936  70.0002  96.7783 0002727 262.5198  97.5651 14.98332160 67834,6950.186,96.107,573.947,570.156,0.0
55936.0,STARLINK-5882,PAYLOAD,2024-05-31 21:28:50,14.9832879,0.0002983,69.9992,95.0952,272.389,87.6927,-5.012e-05,-6.91e-06,0.0,0 STARLINK-5882,1 55936U 23037Y   24152.89502788 -.00000691  00000-0 -50120-4 0  9994,2 55936  69.9992  95.0952 0002983 272.3890  87.6927 14.98328790 67594,6950.197,96.107,574.135,569.988,0.0
55936.0,STARLINK-5882,PAYLOAD,2024-06-01 05:29:30,14.9832658,0.0002657,70.0003,94.2536,263.5365,96.5491,-3.2993e-05,-4.87e-06,0.0,0 STARLINK-5882,1 55936U 23037Y   24153.22882894 -.00000487  00000-0 -32993-4 0  9992,2 55936  70.0003  94.2536 0002657 263.5365  96.5491 14.98326580 67989,6950.203,96.107,573.915,570.222,0.0
55936.0,STARLINK-5882,PAYLOAD,2024-06-01 13:30:11,14.98324271,0.0002874,69.9998,93.4105,263.2102,96.873,1.7226e-05,1.13e-06,0.0,0 STARLINK-5882,1 55936U 23037Y   24153.56262860  .00000113  00000-0  17226-4 0  9990,2 55936  69.9998  93.4105 0002874 263.2102  96.8730 14.98324271 67691,6950.211,96.107,574.073,570.078,0.0
55936.0,STARLINK-5882,PAYLOAD,2024-06-02 05:31:31,14.98332371,0.0002907,69.9998,91.7267,266.7163,93.3664,2.3309e-05,1.85e-06,0.0,0 STARLINK-5882,1 55936U 23037Y   24154.23022342  .00000185  00000-0  23309-4 0  9992,2 55936  69.9998  91.7267 0002907 266.7163  93.3664 14.98332371 68131,6950.186,96.107,574.071,570.03,0.0
55936.0,STARLINK-5882,PAYLOAD,2024-06-02 13:32:11,14.98340639,0.0003102,69.9999,90.885,273.7224,86.358,-0.00017269,-2.153e-05,0.0,0 STARLINK-5882,1 55936U 23037Y   24154.56402236 -.00002153  00000-0 -17269-3 0  9998,2 55936  69.9999  90.8850 0003102 273.7224  86.3580 14.98340639 67846,6950.16,96.106,574.181,569.869,0.0
55936.0,STARLINK-5882,PAYLOAD,2024-06-02 19:56:43,14.98318742,0.0002996,69.9997,90.2116,269.3308,90.7508,0.00027901,3.237e-05,0.0,0 STARLINK-5882,1 55936U 23037Y   24154.83106437  .00003237  00000-0  27901-3 0  9998,2 55936  69.9997  90.2116 0002996 269.3308  90.7508 14.98318742 67880,6950.228,96.108,574.175,570.01,0.0
55936.0,STARLINK-5882,PAYLOAD,2024-06-03 05:33:30,14.98346843,0.0002865,70.0,89.2027,269.5124,90.5706,0.00022688,2.616e-05,0.0,0 STARLINK-5882,1 55936U 23037Y   24155.23160611  .00002616  00000-0  22688-3 0  9994,2 55936  70.0000  89.2027 0002865 269.5124  90.5706 14.98346843 68286,6950.141,96.106,573.997,570.015,0.0
55936.0,STARLINK-5882,PAYLOAD,2024-06-04 03:59:25,14.98327971,0.0002994,69.9999,86.8462,275.7718,84.31,-7.7589e-05,-1.019e-05,0.0,0 STARLINK-5882,1 55936U 23037Y   24156.16626623 -.00001019  00000-0 -77589-4 0  9996,2 55936  69.9999  86.8462 0002994 275.7718  84.3100 14.98327971 68423,6950.199,96.107,574.145,569.983,0.0
55936.0,STARLINK-5882,PAYLOAD,2024-06-04 05:35:33,14.9832813,0.0002976,70.0001,86.6778,276.0612,84.0208,-7.3914e-05,-9.75e-06,0.0,0 STARLINK-5882,1 55936U 23037Y   24156.23302613 -.00000975  00000-0 -73914-4 0  9992,2 55936  70.0001  86.6778 0002976 276.0612  84.0208 14.98328130 68092,6950.199,96.107,574.132,569.995,0.0
55936.0,STARLINK-5882,PAYLOAD,2024-06-04 23:13:01,14.98335998,0.0002601,70.0006,84.8272,278.2556,81.8308,-0.00013101,-1.656e-05,0.0,0 STARLINK-5882,1 55936U 23037Y   24156.96738335 -.00001656  00000-0 -13101-3 0  9994,2 55936  70.0006  84.8272 0002601 278.2556  81.8308 14.98335998 68201,6950.174,96.107,573.847,570.232,0.0
